CCSDS_OMM_VERS = 2.0
CREATION_DATE  = 
ORIGINATOR     = 

OBJECT_NAME    = STARLINK-36240
OBJECT_ID      = 2025-298B
CENTER_NAME    = EARTH
REF_FRAME      = TEME
TIME_SYSTEM    = UTC
MEAN_ELEMENT_THEORY = SGP/SGP4

EPOCH          = 2025-12-29T20:00:01.999008
MEAN_MOTION    = 15.63545768
ECCENTRICITY   = .0003717
INCLINATION    = 69.9992
RA_OF_ASC_NODE = 201.4790
ARG_OF_PERICENTER = 271.7673
MEAN_ANOMALY   = 36.0516

EPHEMERIS_TYPE = 0
CLASSIFICATION_TYPE = U
NORAD_CAT_ID   = 67076
ELEMENT_SET_NO = 999
REV_AT_EPOCH   = 372
BSTAR          = -.20945E-1
MEAN_MOTION_DOT = -.1713644E-1
MEAN_MOTION_DDOT = 0

CCSDS_OMM_VERS = 2.0
CREATION_DATE  = 
ORIGINATOR     = 

OBJECT_NAME    = STARLINK-36243
OBJECT_ID      = 2025-298C
CENTER_NAME    = EARTH
REF_FRAME      = TEME
TIME_SYSTEM    = UTC
MEAN_ELEMENT_THEORY = SGP/SGP4

EPOCH          = 2025-12-29T20:00:01.999008
MEAN_MOTION    = 15.63531990
ECCENTRICITY   = .000373
INCLINATION    = 69.9992
RA_OF_ASC_NODE = 201.4765
ARG_OF_PERICENTER = 272.0214
MEAN_ANOMALY   = 37.8369

EPHEMERIS_TYPE = 0
CLASSIFICATION_TYPE = U
NORAD_CAT_ID   = 67077
ELEMENT_SET_NO = 999
REV_AT_EPOCH   = 372
BSTAR          = -.2091E-1
MEAN_MOTION_DOT = -.1710322E-1
MEAN_MOTION_DDOT = 0

CCSDS_OMM_VERS = 2.0
CREATION_DATE  = 
ORIGINATOR     = 

OBJECT_NAME    = STARLINK-36236
OBJECT_ID      = 2025-298D
CENTER_NAME    = EARTH
REF_FRAME      = TEME
TIME_SYSTEM    = UTC
MEAN_ELEMENT_THEORY = SGP/SGP4

EPOCH          = 2025-12-29T20:00:01.999008
MEAN_MOTION    = 15.63537146
ECCENTRICITY   = .0003815
INCLINATION    = 69.9993
RA_OF_ASC_NODE = 201.4743
ARG_OF_PERICENTER = 271.8966
MEAN_ANOMALY   = 39.8357

EPHEMERIS_TYPE = 0
CLASSIFICATION_TYPE = U
NORAD_CAT_ID   = 67078
ELEMENT_SET_NO = 999
REV_AT_EPOCH   = 372
BSTAR          = -.20948E-1
MEAN_MOTION_DOT = -.1713425E-1
MEAN_MOTION_DDOT = 0

CCSDS_OMM_VERS = 2.0
CREATION_DATE  = 
ORIGINATOR     = 

OBJECT_NAME    = STARLINK-36159
OBJECT_ID      = 2025-298E
CENTER_NAME    = EARTH
REF_FRAME      = TEME
TIME_SYSTEM    = UTC
MEAN_ELEMENT_THEORY = SGP/SGP4

EPOCH          = 2025-12-29T20:00:01.999008
MEAN_MOTION    = 15.59743054
ECCENTRICITY   = .0003701
INCLINATION    = 69.9994
RA_OF_ASC_NODE = 201.4920
ARG_OF_PERICENTER = 269.5742
MEAN_ANOMALY   = 26.6525

EPHEMERIS_TYPE = 0
CLASSIFICATION_TYPE = U
NORAD_CAT_ID   = 67079
ELEMENT_SET_NO = 999
REV_AT_EPOCH   = 372
BSTAR          = -.34751E-1
MEAN_MOTION_DOT = -.2441104E-1
MEAN_MOTION_DDOT = 0

CCSDS_OMM_VERS = 2.0
CREATION_DATE  = 
ORIGINATOR     = 

OBJECT_NAME    = STARLINK-36158
OBJECT_ID      = 2025-298F
CENTER_NAME    = EARTH
REF_FRAME      = TEME
TIME_SYSTEM    = UTC
MEAN_ELEMENT_THEORY = SGP/SGP4

EPOCH          = 2025-12-29T20:00:01.999008
MEAN_MOTION    = 15.63512241
ECCENTRICITY   = .000369
INCLINATION    = 69.9992
RA_OF_ASC_NODE = 201.4694
ARG_OF_PERICENTER = 273.2321
MEAN_ANOMALY   = 42.5463

EPHEMERIS_TYPE = 0
CLASSIFICATION_TYPE = U
NORAD_CAT_ID   = 67080
ELEMENT_SET_NO = 999
REV_AT_EPOCH   = 366
BSTAR          = -.20884E-1
MEAN_MOTION_DOT = -.1707285E-1
MEAN_MOTION_DDOT = 0

CCSDS_OMM_VERS = 2.0
CREATION_DATE  = 
ORIGINATOR     = 

OBJECT_NAME    = STARLINK-35864
OBJECT_ID      = 2025-298G
CENTER_NAME    = EARTH
REF_FRAME      = TEME
TIME_SYSTEM    = UTC
MEAN_ELEMENT_THEORY = SGP/SGP4

EPOCH          = 2025-12-29T20:00:01.999008
MEAN_MOTION    = 15.63529113
ECCENTRICITY   = .000362
INCLINATION    = 69.9992
RA_OF_ASC_NODE = 201.4671
ARG_OF_PERICENTER = 272.8586
MEAN_ANOMALY   = 44.8538

EPHEMERIS_TYPE = 0
CLASSIFICATION_TYPE = U
NORAD_CAT_ID   = 67081
ELEMENT_SET_NO = 999
REV_AT_EPOCH   = 372
BSTAR          = -.21294E-1
MEAN_MOTION_DOT = -.1770064E-1
MEAN_MOTION_DDOT = 0

CCSDS_OMM_VERS = 2.0
CREATION_DATE  = 
ORIGINATOR     = 

OBJECT_NAME    = STARLINK-36035
OBJECT_ID      = 2025-298H
CENTER_NAME    = EARTH
REF_FRAME      = TEME
TIME_SYSTEM    = UTC
MEAN_ELEMENT_THEORY = SGP/SGP4

EPOCH          = 2025-12-29T20:00:01.999008
MEAN_MOTION    = 15.63512825
ECCENTRICITY   = .0003906
INCLINATION    = 69.9992
RA_OF_ASC_NODE = 201.4650
ARG_OF_PERICENTER = 271.3562
MEAN_ANOMALY   = 48.3270

EPHEMERIS_TYPE = 0
CLASSIFICATION_TYPE = U
NORAD_CAT_ID   = 67082
ELEMENT_SET_NO = 999
REV_AT_EPOCH   = 372
BSTAR          = -.21007E-1
MEAN_MOTION_DOT = -.1716332E-1
MEAN_MOTION_DDOT = 0

CCSDS_OMM_VERS = 2.0
CREATION_DATE  = 
ORIGINATOR     = 

OBJECT_NAME    = STARLINK-36170
OBJECT_ID      = 2025-298J
CENTER_NAME    = EARTH
REF_FRAME      = TEME
TIME_SYSTEM    = UTC
MEAN_ELEMENT_THEORY = SGP/SGP4

EPOCH          = 2025-12-29T20:00:01.999008
MEAN_MOTION    = 15.63504238
ECCENTRICITY   = .0003877
INCLINATION    = 69.9993
RA_OF_ASC_NODE = 201.4621
ARG_OF_PERICENTER = 271.2992
MEAN_ANOMALY   = 50.3736

EPHEMERIS_TYPE = 0
CLASSIFICATION_TYPE = U
NORAD_CAT_ID   = 67083
ELEMENT_SET_NO = 999
REV_AT_EPOCH   = 372
BSTAR          = -.20982E-1
MEAN_MOTION_DOT = -.1713987E-1
MEAN_MOTION_DDOT = 0

CCSDS_OMM_VERS = 2.0
CREATION_DATE  = 
ORIGINATOR     = 

OBJECT_NAME    = STARLINK-36166
OBJECT_ID      = 2025-298K
CENTER_NAME    = EARTH
REF_FRAME      = TEME
TIME_SYSTEM    = UTC
MEAN_ELEMENT_THEORY = SGP/SGP4

EPOCH          = 2025-12-29T20:00:01.999008
MEAN_MOTION    = 15.63502106
ECCENTRICITY   = .0003807
INCLINATION    = 69.9993
RA_OF_ASC_NODE = 201.4600
ARG_OF_PERICENTER = 271.6625
MEAN_ANOMALY   = 51.9608

EPHEMERIS_TYPE = 0
CLASSIFICATION_TYPE = U
NORAD_CAT_ID   = 67084
ELEMENT_SET_NO = 999
REV_AT_EPOCH   = 366
BSTAR          = -.2103E-1
MEAN_MOTION_DOT = -.1717227E-1
MEAN_MOTION_DDOT = 0

CCSDS_OMM_VERS = 2.0
CREATION_DATE  = 
ORIGINATOR     = 

OBJECT_NAME    = STARLINK-35794
OBJECT_ID      = 2025-298L
CENTER_NAME    = EARTH
REF_FRAME      = TEME
TIME_SYSTEM    = UTC
MEAN_ELEMENT_THEORY = SGP/SGP4

EPOCH          = 2025-12-29T20:00:01.999008
MEAN_MOTION    = 15.63499218
ECCENTRICITY   = .000388
INCLINATION    = 69.9992
RA_OF_ASC_NODE = 201.4576
ARG_OF_PERICENTER = 271.4373
MEAN_ANOMALY   = 54.1251

EPHEMERIS_TYPE = 0
CLASSIFICATION_TYPE = U
NORAD_CAT_ID   = 67085
ELEMENT_SET_NO = 999
REV_AT_EPOCH   = 372
BSTAR          = -.21012E-1
MEAN_MOTION_DOT = -.1715879E-1
MEAN_MOTION_DDOT = 0

CCSDS_OMM_VERS = 2.0
CREATION_DATE  = 
ORIGINATOR     = 

OBJECT_NAME    = STARLINK-35841
OBJECT_ID      = 2025-298M
CENTER_NAME    = EARTH
REF_FRAME      = TEME
TIME_SYSTEM    = UTC
MEAN_ELEMENT_THEORY = SGP/SGP4

EPOCH          = 2025-12-29T20:00:01.999008
MEAN_MOTION    = 15.63486775
ECCENTRICITY   = .0003816
INCLINATION    = 69.9993
RA_OF_ASC_NODE = 201.4549
ARG_OF_PERICENTER = 271.7919
MEAN_ANOMALY   = 55.7912

EPHEMERIS_TYPE = 0
CLASSIFICATION_TYPE = U
NORAD_CAT_ID   = 67086
ELEMENT_SET_NO = 999
REV_AT_EPOCH   = 372
BSTAR          = -.20953E-1
MEAN_MOTION_DOT = -.1710849E-1
MEAN_MOTION_DDOT = 0

CCSDS_OMM_VERS = 2.0
CREATION_DATE  = 
ORIGINATOR     = 

OBJECT_NAME    = STARLINK-35842
OBJECT_ID      = 2025-298N
CENTER_NAME    = EARTH
REF_FRAME      = TEME
TIME_SYSTEM    = UTC
MEAN_ELEMENT_THEORY = SGP/SGP4

EPOCH          = 2025-12-29T20:00:01.999008
MEAN_MOTION    = 15.54299262
ECCENTRICITY   = .0003204
INCLINATION    = 69.9993
RA_OF_ASC_NODE = 201.5581
ARG_OF_PERICENTER = 276.5868
MEAN_ANOMALY   = 321.6363

EPHEMERIS_TYPE = 0
CLASSIFICATION_TYPE = U
NORAD_CAT_ID   = 67087
ELEMENT_SET_NO = 999
REV_AT_EPOCH   = 372
BSTAR          = -.38878E-1
MEAN_MOTION_DOT = -.2250595E-1
MEAN_MOTION_DDOT = 0

