STARLINK-36240          
1 67076U 25298B   25363.83335647 -.01713644  00000+0 -20945-1 0  9998
2 67076  69.9992 201.4790 0003717 271.7673  36.0516 15.63545768  3729
STARLINK-36243          
1 67077U 25298C   25363.83335647 -.01710322  00000+0 -20910-1 0  9991
2 67077  69.9992 201.4765 0003730 272.0214  37.8369 15.63531990  3729
STARLINK-36236          
1 67078U 25298D   25363.83335647 -.01713425  00000+0 -20948-1 0  9990
2 67078  69.9993 201.4743 0003815 271.8966  39.8357 15.63537146  3720
STARLINK-36159          
1 67079U 25298E   25363.83335647 -.02441104  00000+0 -34751-1 0  9991
2 67079  69.9994 201.4920 0003701 269.5742  26.6525 15.59743054  3722
STARLINK-36158          
1 67080U 25298F   25363.83335647 -.01707285  00000+0 -20884-1 0  9999
2 67080  69.9992 201.4694 0003690 273.2321  42.5463 15.63512241  3660
STARLINK-35864          
1 67081U 25298G   25363.83335647 -.01770064  00000+0 -21294-1 0  9991
2 67081  69.9992 201.4671 0003620 272.8586  44.8538 15.63529113  3728
STARLINK-36035          
1 67082U 25298H   25363.83335647 -.01716332  00000+0 -21007-1 0  9992
2 67082  69.9992 201.4650 0003906 271.3562  48.3270 15.63512825  3725
STARLINK-36170          
1 67083U 25298J   25363.83335647 -.01713987  00000+0 -20982-1 0  9997
2 67083  69.9993 201.4621 0003877 271.2992  50.3736 15.63504238  3727
STARLINK-36166          
1 67084U 25298K   25363.83335647 -.01717227  00000+0 -21030-1 0  9994
2 67084  69.9993 201.4600 0003807 271.6625  51.9608 15.63502106  3665
STARLINK-35794          
1 67085U 25298L   25363.83335647 -.01715879  00000+0 -21012-1 0  9996
2 67085  69.9992 201.4576 0003880 271.4373  54.1251 15.63499218  3721
STARLINK-35841          
1 67086U 25298M   25363.83335647 -.01710849  00000+0 -20953-1 0  9992
2 67086  69.9993 201.4549 0003816 271.7919  55.7912 15.63486775  3726
STARLINK-35842          
1 67087U 25298N   25363.83335647 -.02250595  00000+0 -38878-1 0  9996
2 67087  69.9993 201.5581 0003204 276.5868 321.6363 15.54299262  3729
